[{"OBJECT_NAME":"STARLINK-1746","OBJECT_ID":"2020-070BJ","EPOCH":"2026-03-10T00:00:02.999808","MEAN_MOTION":15.72577071,"ECCENTRICITY":0.00019759,"INCLINATION":53.0443,"RA_OF_ASC_NODE":113.4625,"ARG_OF_PERICENTER":101.3284,"MEAN_ANOMALY":240.7247,"EPHEMERIS_TYPE":0,"CLASSIFICATION_TYPE":"U","NORAD_CAT_ID":46588,"ELEMENT_SET_NO":999,"REV_AT_EPOCH":596,"BSTAR":0.001329381,"MEAN_MOTION_DOT":0.00185163,"MEAN_MOTION_DDOT":0},{"OBJECT_NAME":"STARLINK-36733","OBJECT_ID":"2026-032Q","EPOCH":"2026-03-09T22:00:01.999584","MEAN_MOTION":15.75130561,"ECCENTRICITY":0.00016858,"INCLINATION":97.2842,"RA_OF_ASC_NODE":255.5043,"ARG_OF_PERICENTER":111.2965,"MEAN_ANOMALY":301.4343,"EPHEMERIS_TYPE":0,"CLASSIFICATION_TYPE":"U","NORAD_CAT_ID":67811,"ELEMENT_SET_NO":999,"REV_AT_EPOCH":481,"BSTAR":0.00097807441,"MEAN_MOTION_DOT":0.00147931,"MEAN_MOTION_DDOT":0}]
